[Satellite]
VERSION=1.1
NAME=IRIDIUM 115 [+]
NICKNAME=IRIDIUM 115 [+]
TLE1=1 42806U 17039D   20157.75514472  .00000066  00000-0  13582-4 0  9995
TLE2=2 42806  86.4507 162.3245 0004723  99.7044 260.4690 14.43280134156597
STATUS=0
